CCSDS_OMM_VERS = 2.0
CREATION_DATE  = 
ORIGINATOR     = 

OBJECT_NAME    = STARLINK-36108
OBJECT_ID      = 2025-281W
CENTER_NAME    = EARTH
REF_FRAME      = TEME
TIME_SYSTEM    = UTC
MEAN_ELEMENT_THEORY = SGP/SGP4

EPOCH          = 2025-12-21T06:00:00.999648
MEAN_MOTION    = 15.71387826
ECCENTRICITY   = .00012715
INCLINATION    = 43.0002
RA_OF_ASC_NODE = 70.2434
ARG_OF_PERICENTER = 280.2336
MEAN_ANOMALY   = 155.4602

EPHEMERIS_TYPE = 0
CLASSIFICATION_TYPE = U
NORAD_CAT_ID   = 66868
ELEMENT_SET_NO = 999
REV_AT_EPOCH   = 260
BSTAR          = -.1656385E-1
MEAN_MOTION_DOT = -.1927943E-1
MEAN_MOTION_DDOT = 0

CCSDS_OMM_VERS = 2.0
CREATION_DATE  = 
ORIGINATOR     = 

OBJECT_NAME    = STARLINK-36092
OBJECT_ID      = 2025-281X
CENTER_NAME    = EARTH
REF_FRAME      = TEME
TIME_SYSTEM    = UTC
MEAN_ELEMENT_THEORY = SGP/SGP4

EPOCH          = 2025-12-21T06:00:00.999648
MEAN_MOTION    = 15.71390896
ECCENTRICITY   = .000124
INCLINATION    = 43.0002
RA_OF_ASC_NODE = 70.2385
ARG_OF_PERICENTER = 280.3188
MEAN_ANOMALY   = 157.2885

EPHEMERIS_TYPE = 0
CLASSIFICATION_TYPE = U
NORAD_CAT_ID   = 66869
ELEMENT_SET_NO = 999
REV_AT_EPOCH   = 279
BSTAR          = -.16581217E-1
MEAN_MOTION_DOT = -.1929934E-1
MEAN_MOTION_DDOT = 0

CCSDS_OMM_VERS = 2.0
CREATION_DATE  = 
ORIGINATOR     = 

OBJECT_NAME    = STARLINK-36114
OBJECT_ID      = 2025-281Y
CENTER_NAME    = EARTH
REF_FRAME      = TEME
TIME_SYSTEM    = UTC
MEAN_ELEMENT_THEORY = SGP/SGP4

EPOCH          = 2025-12-21T06:00:00.999648
MEAN_MOTION    = 15.71387782
ECCENTRICITY   = .00011797
INCLINATION    = 43.0005
RA_OF_ASC_NODE = 70.2340
ARG_OF_PERICENTER = 282.2354
MEAN_ANOMALY   = 157.2903

EPHEMERIS_TYPE = 0
CLASSIFICATION_TYPE = U
NORAD_CAT_ID   = 66870
ELEMENT_SET_NO = 999
REV_AT_EPOCH   = 266
BSTAR          = -.16547676E-1
MEAN_MOTION_DOT = -.1926203E-1
MEAN_MOTION_DDOT = 0

CCSDS_OMM_VERS = 2.0
CREATION_DATE  = 
ORIGINATOR     = 

OBJECT_NAME    = STARLINK-36095
OBJECT_ID      = 2025-281Z
CENTER_NAME    = EARTH
REF_FRAME      = TEME
TIME_SYSTEM    = UTC
MEAN_ELEMENT_THEORY = SGP/SGP4

EPOCH          = 2025-12-21T06:00:00.999648
MEAN_MOTION    = 15.71387361
ECCENTRICITY   = .00010958
INCLINATION    = 43.0002
RA_OF_ASC_NODE = 70.2285
ARG_OF_PERICENTER = 281.8860
MEAN_ANOMALY   = 159.5579

EPHEMERIS_TYPE = 0
CLASSIFICATION_TYPE = U
NORAD_CAT_ID   = 66871
ELEMENT_SET_NO = 999
REV_AT_EPOCH   = 279
BSTAR          = -.16551582E-1
MEAN_MOTION_DOT = -.1926513E-1
MEAN_MOTION_DDOT = 0

CCSDS_OMM_VERS = 2.0
CREATION_DATE  = 
ORIGINATOR     = 

OBJECT_NAME    = STARLINK-36082
OBJECT_ID      = 2025-281AA
CENTER_NAME    = EARTH
REF_FRAME      = TEME
TIME_SYSTEM    = UTC
MEAN_ELEMENT_THEORY = SGP/SGP4

EPOCH          = 2025-12-21T06:00:00.999648
MEAN_MOTION    = 15.71385247
ECCENTRICITY   = .000125
INCLINATION    = 43.0017
RA_OF_ASC_NODE = 70.2243
ARG_OF_PERICENTER = 278.7371
MEAN_ANOMALY   = 164.6250

EPHEMERIS_TYPE = 0
CLASSIFICATION_TYPE = U
NORAD_CAT_ID   = 66872
ELEMENT_SET_NO = 999
REV_AT_EPOCH   = 266
BSTAR          = -.16543368E-1
MEAN_MOTION_DOT = -.1925624E-1
MEAN_MOTION_DDOT = 0

CCSDS_OMM_VERS = 2.0
CREATION_DATE  = 
ORIGINATOR     = 

OBJECT_NAME    = STARLINK-36128
OBJECT_ID      = 2025-281AB
CENTER_NAME    = EARTH
REF_FRAME      = TEME
TIME_SYSTEM    = UTC
MEAN_ELEMENT_THEORY = SGP/SGP4

EPOCH          = 2025-12-21T06:00:00.999648
MEAN_MOTION    = 15.71386797
ECCENTRICITY   = .00012063
INCLINATION    = 43.0005
RA_OF_ASC_NODE = 70.2088
ARG_OF_PERICENTER = 282.8369
MEAN_ANOMALY   = 166.2742

EPHEMERIS_TYPE = 0
CLASSIFICATION_TYPE = U
NORAD_CAT_ID   = 66873
ELEMENT_SET_NO = 999
REV_AT_EPOCH   = 279
BSTAR          = -.16531022E-1
MEAN_MOTION_DOT = -.1924433E-1
MEAN_MOTION_DDOT = 0

CCSDS_OMM_VERS = 2.0
CREATION_DATE  = 
ORIGINATOR     = 

OBJECT_NAME    = STARLINK-36129
OBJECT_ID      = 2025-281AC
CENTER_NAME    = EARTH
REF_FRAME      = TEME
TIME_SYSTEM    = UTC
MEAN_ELEMENT_THEORY = SGP/SGP4

EPOCH          = 2025-12-21T06:00:00.999648
MEAN_MOTION    = 15.71388999
ECCENTRICITY   = .00012214
INCLINATION    = 43.0003
RA_OF_ASC_NODE = 70.2185
ARG_OF_PERICENTER = 281.7932
MEAN_ANOMALY   = 163.4838

EPHEMERIS_TYPE = 0
CLASSIFICATION_TYPE = U
NORAD_CAT_ID   = 66874
ELEMENT_SET_NO = 999
REV_AT_EPOCH   = 279
BSTAR          = -.16566128E-1
MEAN_MOTION_DOT = -.1928225E-1
MEAN_MOTION_DDOT = 0

CCSDS_OMM_VERS = 2.0
CREATION_DATE  = 
ORIGINATOR     = 

OBJECT_NAME    = STARLINK-36053
OBJECT_ID      = 2025-281AD
CENTER_NAME    = EARTH
REF_FRAME      = TEME
TIME_SYSTEM    = UTC
MEAN_ELEMENT_THEORY = SGP/SGP4

EPOCH          = 2025-12-21T06:00:00.999648
MEAN_MOTION    = 15.71390536
ECCENTRICITY   = .00011373
INCLINATION    = 43.0002
RA_OF_ASC_NODE = 70.2045
ARG_OF_PERICENTER = 278.5082
MEAN_ANOMALY   = 172.5179

EPHEMERIS_TYPE = 0
CLASSIFICATION_TYPE = U
NORAD_CAT_ID   = 66875
ELEMENT_SET_NO = 999
REV_AT_EPOCH   = 279
BSTAR          = -.16575E-1
MEAN_MOTION_DOT = -.192919E-1
MEAN_MOTION_DDOT = 0

CCSDS_OMM_VERS = 2.0
CREATION_DATE  = 
ORIGINATOR     = 

OBJECT_NAME    = STARLINK-35702
OBJECT_ID      = 2025-281AE
CENTER_NAME    = EARTH
REF_FRAME      = TEME
TIME_SYSTEM    = UTC
MEAN_ELEMENT_THEORY = SGP/SGP4

EPOCH          = 2025-12-21T06:00:00.999648
MEAN_MOTION    = 15.71387615
ECCENTRICITY   = .0001234
INCLINATION    = 43.0006
RA_OF_ASC_NODE = 70.2138
ARG_OF_PERICENTER = 282.5286
MEAN_ANOMALY   = 164.6663

EPHEMERIS_TYPE = 0
CLASSIFICATION_TYPE = U
NORAD_CAT_ID   = 66876
ELEMENT_SET_NO = 999
REV_AT_EPOCH   = 279
BSTAR          = -.16552162E-1
MEAN_MOTION_DOT = -.1926693E-1
MEAN_MOTION_DDOT = 0

CCSDS_OMM_VERS = 2.0
CREATION_DATE  = 
ORIGINATOR     = 

OBJECT_NAME    = ZQ-3 R/B
OBJECT_ID      = 2025-282A
CENTER_NAME    = EARTH
REF_FRAME      = TEME
TIME_SYSTEM    = UTC
MEAN_ELEMENT_THEORY = SGP/SGP4

EPOCH          = 2025-12-21T02:55:49.211904
MEAN_MOTION    = 14.76425163
ECCENTRICITY   = .07090877
INCLINATION    = 56.9486
RA_OF_ASC_NODE = 25.1663
ARG_OF_PERICENTER = 234.6911
MEAN_ANOMALY   = 118.5822

EPHEMERIS_TYPE = 0
CLASSIFICATION_TYPE = U
NORAD_CAT_ID   = 66877
ELEMENT_SET_NO = 999
REV_AT_EPOCH   = 262
BSTAR          = .17231968E-3
MEAN_MOTION_DOT = .968838E-2
MEAN_MOTION_DDOT = .7778787E-5

CCSDS_OMM_VERS = 2.0
CREATION_DATE  = 
ORIGINATOR     = 

OBJECT_NAME    = STARLINK-35866
OBJECT_ID      = 2025-283A
CENTER_NAME    = EARTH
REF_FRAME      = TEME
TIME_SYSTEM    = UTC
MEAN_ELEMENT_THEORY = SGP/SGP4

EPOCH          = 2025-12-21T06:00:00.999648
MEAN_MOTION    = 15.74202398
ECCENTRICITY   = .00009924
INCLINATION    = 53.1581
RA_OF_ASC_NODE = 31.1835
ARG_OF_PERICENTER = 93.0618
MEAN_ANOMALY   = 41.1894

EPHEMERIS_TYPE = 0
CLASSIFICATION_TYPE = U
NORAD_CAT_ID   = 66878
ELEMENT_SET_NO = 999
REV_AT_EPOCH   = 379
BSTAR          = -.39900578E-3
MEAN_MOTION_DOT = -.58692E-3
MEAN_MOTION_DDOT = 0

CCSDS_OMM_VERS = 2.0
CREATION_DATE  = 
ORIGINATOR     = 

OBJECT_NAME    = STARLINK-35749
OBJECT_ID      = 2025-283B
CENTER_NAME    = EARTH
REF_FRAME      = TEME
TIME_SYSTEM    = UTC
MEAN_ELEMENT_THEORY = SGP/SGP4

EPOCH          = 2025-12-21T06:00:00.999648
MEAN_MOTION    = 15.74199360
ECCENTRICITY   = .0001202
INCLINATION    = 53.1580
RA_OF_ASC_NODE = 31.1754
ARG_OF_PERICENTER = 90.4794
MEAN_ANOMALY   = 47.6053

EPHEMERIS_TYPE = 0
CLASSIFICATION_TYPE = U
NORAD_CAT_ID   = 66879
ELEMENT_SET_NO = 999
REV_AT_EPOCH   = 379
BSTAR          = -.3794569E-3
MEAN_MOTION_DOT = -.5586E-3
MEAN_MOTION_DDOT = 0

