STARLINK-36108          
1 66868U 25281W   25355.25001157 -.01927943  00000+0 -16564-1 0  9992
2 66868  43.0002  70.2434 0001271 280.2336 155.4602 15.71387826  2609
STARLINK-36092          
1 66869U 25281X   25355.25001157 -.01929934  00000+0 -16581-1 0  9994
2 66869  43.0002  70.2385 0001240 280.3188 157.2885 15.71390896  2791
STARLINK-36114          
1 66870U 25281Y   25355.25001157 -.01926203  00000+0 -16548-1 0  9995
2 66870  43.0005  70.2340 0001179 282.2354 157.2903 15.71387782  2661
STARLINK-36095          
1 66871U 25281Z   25355.25001157 -.01926513  00000+0 -16552-1 0  9995
2 66871  43.0002  70.2285 0001095 281.8860 159.5579 15.71387361  2792
STARLINK-36082          
1 66872U 25281AA  25355.25001157 -.01925624  00000+0 -16543-1 0  9998
2 66872  43.0017  70.2243 0001250 278.7371 164.6250 15.71385247  2668
STARLINK-36128          
1 66873U 25281AB  25355.25001157 -.01924433  00000+0 -16531-1 0  9993
2 66873  43.0005  70.2088 0001206 282.8369 166.2742 15.71386797  2796
STARLINK-36129          
1 66874U 25281AC  25355.25001157 -.01928225  00000+0 -16566-1 0  9995
2 66874  43.0003  70.2185 0001221 281.7932 163.4838 15.71388999  2795
STARLINK-36053          
1 66875U 25281AD  25355.25001157 -.01929190  00000+0 -16575-1 0  9998
2 66875  43.0002  70.2045 0001137 278.5082 172.5179 15.71390536  2795
STARLINK-35702          
1 66876U 25281AE  25355.25001157 -.01926693  00000+0 -16552-1 0  9999
2 66876  43.0006  70.2138 0001234 282.5286 164.6663 15.71387615  2796
ZQ-3 R/B                
1 66877U 25282A   25355.12209736  .00968838  77788-5  17232-3 0  9995
2 66877  56.9486  25.1663 0709087 234.6911 118.5822 14.76425163  2620
STARLINK-35866          
1 66878U 25283A   25355.25001157 -.00058692  00000+0 -39901-3 0  9992
2 66878  53.1581  31.1835 0000992  93.0618  41.1894 15.74202398  3795
STARLINK-35749          
1 66879U 25283B   25355.25001157 -.00055860  00000+0 -37946-3 0  9994
2 66879  53.1580  31.1754 0001202  90.4794  47.6053 15.74199360  3798
